NORAD_CAT_ID,OBJECT_NAME,OBJECT_TYPE,EPOCH,MEAN_MOTION,ECCENTRICITY,INCLINATION,RA_OF_ASC_NODE,ARG_OF_PERICENTER,MEAN_ANOMALY,BSTAR,MEAN_MOTION_DOT,MEAN_MOTION_DDOT,TLE_LINE0,TLE_LINE1,TLE_LINE2,SEMIMAJOR_AXIS,PERIOD,APOGEE,PERIGEE,DECAYED
56463.0,STARLINK-6051,PAYLOAD,2024-08-07 21:07:41,14.98330611,0.0002765,70.0004,163.9291,277.0692,83.0153,0.00036871,4.309e-05,0.0,0 STARLINK-6051,1 56463U 23064R   24220.88033970  .00004309  00000-0  36871-3 0  9991,2 56463  70.0004 163.9291 0002765 277.0692  83.0153 14.98330611 68540,6950.191,96.107,573.978,570.134,0.0
56463.0,STARLINK-6051,PAYLOAD,2024-08-08 06:44:29,14.9834122,0.000253,70.0011,162.9179,276.4566,83.6305,0.00055934,6.589e-05,0.0,0 STARLINK-6051,1 56463U 23064R   24221.28089360  .00006589  00000-0  55934-3 0  9993,2 56463  70.0011 162.9179 0002530 276.4566  83.6305 14.98341220 68605,6950.158,96.106,573.782,570.265,0.0
56463.0,STARLINK-6051,PAYLOAD,2024-08-08 21:09:41,14.9834374,0.0002356,70.0051,161.4039,249.5954,110.4953,0.00013184,1.481e-05,0.0,0 STARLINK-6051,1 56463U 23064R   24221.88173245  .00001481  00000-0  13184-3 0  9992,2 56463  70.0051 161.4039 0002356 249.5954 110.4953 14.98343740 69053,6950.15,96.106,573.653,570.378,0.0
56463.0,STARLINK-6051,PAYLOAD,2024-08-08 22:45:49,14.98339231,0.0002665,70.0021,161.2355,269.0408,91.0445,4.7439e-05,4.73e-06,0.0,0 STARLINK-6051,1 56463U 23064R   24221.94849518  .00000473  00000-0  47439-4 0  9993,2 56463  70.0021 161.2355 0002665 269.0408  91.0445 14.98339231 68704,6950.164,96.106,573.882,570.177,0.0
56463.0,STARLINK-6051,PAYLOAD,2024-08-09 13:11:02,14.98333052,0.0002789,70.0027,159.7205,267.1791,92.9049,-9.7407e-05,-1.255e-05,0.0,0 STARLINK-6051,1 56463U 23064R   24222.54933469 -.00001255  00000-0 -97407-4 0  9990,2 56463  70.0027 159.7205 0002789 267.1791  92.9049 14.98333052 69152,6950.183,96.107,573.987,570.11,0.0
56463.0,STARLINK-6051,PAYLOAD,2024-08-09 21:11:42,14.98332542,0.0002542,70.0031,158.8797,262.1622,97.9248,-8.5016e-05,-1.107e-05,0.0,0 STARLINK-6051,1 56463U 23064R   24222.88313530 -.00001107  00000-0 -85016-4 0  9997,2 56463  70.0031 158.8797 0002542 262.1622  97.9248 14.98332542 68842,6950.185,96.107,573.817,570.283,0.0
56463.0,STARLINK-6051,PAYLOAD,2024-08-10 03:36:15,14.98333623,0.0002584,70.0023,158.206,266.997,93.0893,-4.1564e-05,-5.89e-06,0.0,0 STARLINK-6051,1 56463U 23064R   24223.15017488 -.00000589  00000-0 -41564-4 0  9994,2 56463  70.0023 158.2060 0002584 266.9970  93.0893 14.98333623 68882,6950.182,96.107,573.843,570.251,0.0
56463.0,STARLINK-6051,PAYLOAD,2024-08-10 21:13:43,14.9833629,0.0002633,70.0024,156.3553,256.66,103.4266,0.00027735,3.218e-05,0.0,0 STARLINK-6051,1 56463U 23064R   24223.88453294  .00003218  00000-0  27735-3 0  9996,2 56463  70.0024 156.3553 0002633 256.6600 103.4266 14.98336290 69356,6950.173,96.107,573.868,570.208,0.0
56463.0,STARLINK-6051,PAYLOAD,2024-08-10 22:49:51,14.98336749,0.0002636,70.0023,156.1865,257.8411,102.2453,0.00029349,3.411e-05,0.0,0 STARLINK-6051,1 56463U 23064R   24223.95129271  .00003411  00000-0  29349-3 0  9997,2 56463  70.0023 156.1865 0002636 257.8411 102.2453 14.98336749 69001,6950.172,96.107,573.869,570.205,0.0
56463.0,STARLINK-6051,PAYLOAD,2024-08-11 22:51:52,14.98340255,0.0002356,70.0041,153.6615,284.1021,75.9876,0.00031132,3.625e-05,0.0,0 STARLINK-6051,1 56463U 23064R   24224.95269116  .00003625  00000-0  31132-3 0  9991,2 56463  70.0041 153.6615 0002356 284.1021  75.9876 14.98340255 69153,6950.161,96.106,573.664,570.389,0.0
56463.0,STARLINK-6051,PAYLOAD,2024-08-12 05:16:24,14.98343801,0.0002457,70.0032,152.9914,259.1925,100.8957,0.00035292,4.122e-05,0.0,0 STARLINK-6051,1 56463U 23064R   24225.21972588  .00004122  00000-0  35292-3 0  9999,2 56463  70.0032 152.9914 0002457 259.1925 100.8957 14.98343801 69556,6950.15,96.106,573.723,570.308,0.0
56463.0,STARLINK-6051,PAYLOAD,2024-08-12 22:53:52,14.98347683,0.0002378,70.0035,151.1411,258.6869,101.4023,0.00034071,3.976e-05,0.0,0 STARLINK-6051,1 56463U 23064R   24225.95407966  .00003976  00000-0  34071-3 0  9993,2 56463  70.0035 151.1411 0002378 258.6869 101.4023 14.98347683 69301,6950.138,96.106,573.656,570.35,0.0
56463.0,STARLINK-6051,PAYLOAD,2024-08-13 05:18:24,14.98356812,0.0002282,70.0028,150.467,253.0754,107.0155,0.00050555,5.948e-05,0.0,0 STARLINK-6051,1 56463U 23064R   24226.22111331  .00005948  00000-0  50555-3 0  9998,2 56463  70.0028 150.4670 0002282 253.0754 107.0155 14.98356812 69704,6950.11,96.105,573.561,570.389,0.0
56463.0,STARLINK-6051,PAYLOAD,2024-08-13 11:42:58,14.98287213,0.0002052,70.0045,149.7916,280.7392,79.3536,-0.0014842,-0.00017737,0.0,0 STARLINK-6051,1 56463U 23064R   24226.48817991 -.00017737  00000-0 -14842-2 0  9990,2 56463  70.0045 149.7916 0002052 280.7392  79.3536 14.98287213 69743,6950.325,96.11,573.616,570.764,0.0
56463.0,STARLINK-6051,PAYLOAD,2024-08-13 22:55:56,14.98281013,0.0002677,70.0026,148.6121,278.8547,81.2309,-0.0011093,-0.00013287,0.0,0 STARLINK-6051,1 56463U 23064R   24226.95551174 -.00013287  00000-0 -11093-2 0  9991,2 56463  70.0026 148.6121 0002677 278.8547  81.2309 14.98281013 69451,6950.344,96.11,574.07,570.349,0.0
56463.0,STARLINK-6051,PAYLOAD,2024-08-14 03:44:20,14.98279129,0.0002673,70.0026,148.1089,274.3732,85.7122,-0.00063775,-7.684e-05,0.0,0 STARLINK-6051,1 56463U 23064R   24227.15579715 -.00007684  00000-0 -63775-3 0  9994,2 56463  70.0026 148.1089 0002673 274.3732  85.7122 14.98279129 69842,6950.35,96.11,574.073,570.357,0.0
56463.0,STARLINK-6051,PAYLOAD,2024-08-14 11:45:01,14.98300241,0.000351,70.0011,147.2661,277.782,82.2941,0.0018571,0.00022119,0.0,0 STARLINK-6051,1 56463U 23064R   24227.48960400  .00022119  00000-0  18571-2 0  9996,2 56463  70.0011 147.2661 0003510 277.7820  82.2941 14.98300241 69894,6950.285,96.109,574.589,569.71,0.0
56463.0,STARLINK-6051,PAYLOAD,2024-08-14 22:57:57,14.98340493,0.0003538,70.002,146.0892,271.3461,88.7292,0.002427,0.00028994,0.0,0 STARLINK-6051,1 56463U 23064R   24227.95692038  .00028994  00000-0  24270-2 0  9997,2 56463  70.0020 146.0892 0003538 271.3461  88.7292 14.98340493 69600,6950.16,96.106,574.484,569.566,0.0
56463.0,STARLINK-6051,PAYLOAD,2024-08-15 03:46:21,14.98379879,0.0003576,70.0004,145.5812,273.7812,86.2939,0.0028777,0.00034458,0.0,0 STARLINK-6051,1 56463U 23064R   24228.15719202  .00034458  00000-0  28777-2 0  9991,2 56463  70.0004 145.5812 0003576 273.7812  86.2939 14.98379879 69999,6950.039,96.104,574.389,569.418,0.0
56463.0,STARLINK-6051,PAYLOAD,2024-08-15 11:47:01,14.98366633,0.0002792,70.0031,144.7407,270.7301,89.3538,0.00095756,0.00011362,0.0,0 STARLINK-6051,1 56463U 23064R   24228.49098785  .00011362  00000-0  95756-3 0  9995,2 56463  70.0031 144.7407 0002792 270.7301  89.3538 14.98366633 69688,6950.08,96.105,573.885,570.004,0.0
56463.0,STARLINK-6051,PAYLOAD,2024-08-15 21:23:49,14.98364911,0.0001488,70.0028,143.7311,278.9254,81.1736,0.0010482,0.00012447,0.0,0 STARLINK-6051,1 56463U 23064R   24228.89154617  .00012447  00000-0  10482-2 0  9993,2 56463  70.0028 143.7311 0001488 278.9254  81.1736 14.98364911 70101,6950.085,96.105,572.984,570.916,0.0
56463.0,STARLINK-6051,PAYLOAD,2024-08-15 22:59:57,14.98357798,0.0002909,70.0023,143.5635,267.2334,92.8492,0.00027957,3.247e-05,0.0,0 STARLINK-6051,1 56463U 23064R   24228.95830200  .00003247  00000-0  27957-3 0  9993,2 56463  70.0023 143.5635 0002909 267.2334  92.8492 14.98357798 69754,6950.107,96.105,573.994,569.95,0.0
56463.0,STARLINK-6051,PAYLOAD,2024-08-16 03:48:21,14.98366175,0.0003211,70.0014,143.0566,267.5344,92.5447,0.0027638,0.00033072,0.0,0 STARLINK-6051,1 56463U 23064R   24229.15857943  .00033072  00000-0  27638-2 0  9993,2 56463  70.0014 143.0566 0003211 267.5344  92.5447 14.98366175 69782,6950.081,96.105,574.178,569.714,0.0
56463.0,STARLINK-6051,PAYLOAD,2024-08-16 21:25:48,14.98380634,0.0003189,70.0014,141.206,270.7175,89.3619,0.002357,0.00028181,0.0,0 STARLINK-6051,1 56463U 23064R   24229.89292607  .00028181  00000-0  23570-2 0  9990,2 56463  70.0014 141.2060 0003189 270.7175  89.3619 14.98380634 70258,6950.036,96.104,574.118,569.685,0.0
56463.0,STARLINK-6051,PAYLOAD,2024-08-17 03:50:20,14.98365783,0.000273,70.0026,140.5357,267.5974,92.4872,0.00051976,6.12e-05,0.0,0 STARLINK-6051,1 56463U 23064R   24230.15996018  .00006120  00000-0  51976-3 0  9999,2 56463  70.0026 140.5357 0002730 267.5974  92.4872 14.98365783 70292,6950.082,96.105,573.845,570.05,0.0
56463.0,STARLINK-6051,PAYLOAD,2024-08-17 18:15:33,14.9832642,0.0003643,70.0021,139.0189,267.1455,92.9287,-0.0004834,-5.856e-05,0.0,0 STARLINK-6051,1 56463U 23064R   24230.76080875 -.00005856  00000-0 -48340-3 0  9999,2 56463  70.0021 139.0189 0003643 267.1455  92.9287 14.98326420 70387,6950.204,96.107,574.601,569.537,0.0
56463.0,STARLINK-6051,PAYLOAD,2024-08-18 03:52:22,14.98324888,0.0003015,70.0022,138.0078,261.2717,98.81,-0.00022235,-2.745e-05,0.0,0 STARLINK-6051,1 56463U 23064R   24231.16136959 -.00002745  00000-0 -22235-3 0  9998,2 56463  70.0022 138.0078 0003015 261.2717  98.8100 14.98324888 70085,6950.209,96.107,574.169,569.978,0.0
56463.0,STARLINK-6051,PAYLOAD,2024-08-18 21:29:51,14.9833412,0.0003268,70.0018,136.1564,260.5394,99.5396,0.0007161,8.463e-05,0.0,0 STARLINK-6051,1 56463U 23064R   24231.89573131  .00008463  00000-0  71610-3 0  9997,2 56463  70.0018 136.1564 0003268 260.5394  99.5396 14.98334120 70559,6950.18,96.107,574.316,569.774,0.0
56463.0,STARLINK-6051,PAYLOAD,2024-08-19 03:54:23,14.98348109,0.0003123,70.0018,135.4831,260.3826,99.698,0.0011361,0.00013495,0.0,0 STARLINK-6051,1 56463U 23064R   24232.16276810  .00013495  00000-0  11361-2 0  9999,2 56463  70.0018 135.4831 0003123 260.3826  99.6980 14.98348109 70592,6950.137,96.106,574.172,569.831,0.0
56463.0,STARLINK-6051,PAYLOAD,2024-08-19 21:31:52,14.98334966,0.0001831,70.0057,133.6349,245.6807,114.4161,0.00018539,2.12e-05,0.0,0 STARLINK-6051,1 56463U 23064R   24232.89713274  .00002120  00000-0  18539-3 0  9997,2 56463  70.0057 133.6349 0001831 245.6807 114.4161 14.98334966 70704,6950.178,96.107,573.315,570.77,0.0
